NORAD_CAT_ID,OBJECT_NAME,OBJECT_TYPE,EPOCH,MEAN_MOTION,ECCENTRICITY,INCLINATION,RA_OF_ASC_NODE,ARG_OF_PERICENTER,MEAN_ANOMALY,BSTAR,MEAN_MOTION_DOT,MEAN_MOTION_DDOT,TLE_LINE0,TLE_LINE1,TLE_LINE2,SEMIMAJOR_AXIS,PERIOD,APOGEE,PERIGEE,DECAYED
54059.0,STARLINK-5173,PAYLOAD,2022-12-29 04:54:26,15.0884215,0.0001123,53.2165,180.7205,87.0253,273.0868,6.6079e-05,7.64e-06,0.0,0 STARLINK-5173,1 54059U 22136J   22363.20447727  .00000764  00000-0  66079-4 0  9995,2 54059  53.2165 180.7205 0001123  87.0253 273.0868 15.08842150 11226,6917.874,95.437,540.516,538.962,0.0
54059.0,STARLINK-5173,PAYLOAD,2022-12-29 12:51:23,15.08826554,0.0001085,53.2168,179.2325,86.8758,273.2358,-4.3272e-05,-9.76e-06,0.0,0 STARLINK-5173,1 54059U 22136J   22363.53569100 -.00000976  00000-0 -43272-4 0  9998,2 54059  53.2168 179.2325 0001085  86.8758 273.2358 15.08826554 11270,6917.920999999999,95.438,540.5369999999998,539.036,0.0
54059.0,STARLINK-5173,PAYLOAD,2022-12-30 11:06:47,15.08832966,0.0001242999999999,53.2166,175.0699,91.2232,268.8902,4.7289e-05,4.65e-06,0.0,0 STARLINK-5173,1 54059U 22136J   22364.46305187  .00000465  00000-0  47289-4 0  9997,2 54059  53.2166 175.0699 0001243  91.2232 268.8902 15.08832966 11414,6917.901999999999,95.438,540.627,538.9069999999998,0.0
54059.0,STARLINK-5173,PAYLOAD,2022-12-31 10:57:34,15.08835489,0.0001200999999999,53.217,170.6091,89.3525,270.7605,0.00019849,2.872e-05,0.0,0 STARLINK-5173,1 54059U 22136J   22365.45665024  .00002872  00000-0  19849-3 0  9990,2 54059  53.2170 170.6091 0001201  89.3525 270.7605 15.08835489 11081,6917.894,95.438,540.59,538.928,0.0
54059.0,STARLINK-5173,PAYLOAD,2022-12-31 17:19:06,15.08840433,0.0001195,53.2171,169.4198,89.2022,270.9107,0.00023173,3.402e-05,0.0,0 STARLINK-5173,1 54059U 22136J   22365.72160789  .00003402  00000-0  23173-3 0  9993,2 54059  53.2171 169.4198 0001195  89.2022 270.9107 15.08840433 11128,6917.879,95.438,540.571,538.9169999999998,0.0
54059.0,STARLINK-5173,PAYLOAD,2023-01-01 06:02:11,15.08852063,0.0001213,53.2165,167.041,86.7935,273.3196,0.0003413999999999,5.151e-05,0.0,0 STARLINK-5173,1 54059U 22136J   23001.25152569  .00005151  00000-0  34140-3 0  9995,2 54059  53.2165 167.0410 0001213  86.7935 273.3196 15.08852063 11204,6917.844,95.437,540.548,538.869,0.0
54059.0,STARLINK-5173,PAYLOAD,2023-01-01 18:45:17,15.08844425,0.0001331999999999,53.216,164.6616,90.7183,269.3961,0.00014106,1.958e-05,0.0,0 STARLINK-5173,1 54059U 22136J   23001.78144907  .00001958  00000-0  14106-3 0  9991,2 54059  53.2160 164.6616 0001332  90.7183 269.3961 15.08844425 11288,6917.8669999999975,95.437,540.653,538.81,0.0
54059.0,STARLINK-5173,PAYLOAD,2023-01-02 12:14:31,15.08841091,0.0001415,53.216,161.3911,86.4998,273.6156,-3.4038e-05,-8.3e-06,0.0,0 STARLINK-5173,1 54059U 22136J   23002.51008679 -.00000830  00000-0 -34038-4 0  9995,2 54059  53.2160 161.3911 0001415  86.4998 273.6156 15.08841091 11390,6917.877,95.437,540.721,538.763,0.0
54059.0,STARLINK-5173,PAYLOAD,2023-01-02 17:00:40,15.08843448,0.0001416999999999,53.2171,160.4989,88.6362,271.4792,2.0681e-05,4.1e-07,0.0,0 STARLINK-5173,1 54059U 22136J   23002.70880740  .00000041  00000-0  20681-4 0  9994,2 54059  53.2171 160.4989 0001417  88.6362 271.4792 15.08843448 11422,6917.87,95.437,540.715,538.755,0.0
54059.0,STARLINK-5173,PAYLOAD,2023-01-03 12:05:18,15.08840839,0.0001401,53.2173,156.9308,86.546,273.5692,8.347899999999999e-05,1.041e-05,0.0,0 STARLINK-5173,1 54059U 22136J   23003.50368524  .00001041  00000-0  83479-4 0  9999,2 54059  53.2173 156.9308 0001401  86.5460 273.5692 15.08840839 11544,6917.878000000002,95.438,540.712,538.774,0.0
54059.0,STARLINK-5173,PAYLOAD,2023-01-03 13:40:41,15.08840838,0.000139,53.2174,156.6335,86.2594,273.8557,9.0578e-05,1.154e-05,0.0,0 STARLINK-5173,1 54059U 22136J   23003.56992556  .00001154  00000-0  90578-4 0  9996,2 54059  53.2174 156.6335 0001390  86.2594 273.8557 15.08840838 12031,6917.878000000002,95.438,540.7040000000002,538.781,0.0
54059.0,STARLINK-5173,PAYLOAD,2023-01-04 10:20:41,15.08849432,0.0001412,53.2174,152.7681,83.8023,276.313,7.3565e-05,8.83e-06,0.0,0 STARLINK-5173,1 54059U 22136J   23004.43103938  .00000883  00000-0  73565-4 0  9996,2 54059  53.2174 152.7681 0001412  83.8023 276.3130 15.08849432 11681,6917.852,95.437,540.693,538.74,0.0
54059.0,STARLINK-5173,PAYLOAD,2023-01-04 15:06:51,15.08843559,0.0001258,53.2179,151.8757,82.66,277.4535,-9.7555e-06,-4.43e-06,0.0,0 STARLINK-5173,1 54059U 22136J   23004.62976285 -.00000443  00000-0 -97555-5 0  9990,2 54059  53.2179 151.8757 0001258  82.6600 277.4535 15.08843559 11715,6917.87,95.437,540.605,538.864,0.0
54059.0,STARLINK-5173,PAYLOAD,2023-01-04 16:42:14,15.08841781,0.0001367,53.2178,151.5785,90.1117,270.0032,-1.2416e-05,-4.86e-06,0.0,0 STARLINK-5173,1 54059U 22136J   23004.69600388 -.00000486  00000-0 -12416-4 0  9994,2 54059  53.2178 151.5785 0001367  90.1117 270.0032 15.08841781 12201,6917.875,95.437,540.686,538.794,0.0
54059.0,STARLINK-5173,PAYLOAD,2023-01-05 02:14:32,15.08848024,0.0001236,53.2183,149.7962,81.2164,278.8968,0.00010151,1.328e-05,0.0,0 STARLINK-5173,1 54059U 22136J   23005.09343681  .00001328  00000-0  10151-3 0  9996,2 54059  53.2183 149.7962 0001236  81.2164 278.8968 15.08848024 12268,6917.856,95.437,540.576,538.866,0.0
54059.0,STARLINK-5173,PAYLOAD,2023-01-05 11:46:51,15.08850234,0.0001204,53.2181,148.0105,72.4282,287.6842,0.00021514,3.139e-05,0.0,0 STARLINK-5173,1 54059U 22136J   23005.49087140  .00003139  00000-0  21514-3 0  9992,2 54059  53.2181 148.0105 0001204  72.4282 287.6842 15.08850234 11843,6917.849,95.437,540.547,538.881,0.0
54059.0,STARLINK-5173,PAYLOAD,2023-01-05 16:33:00,15.08850372,0.0001240999999999,53.218,147.1159,73.1523,286.9605,0.0001779,2.545e-05,0.0,0 STARLINK-5173,1 54059U 22136J   23005.68959201  .00002545  00000-0  17790-3 0  9990,2 54059  53.2180 147.1159 0001241  73.1523 286.9605 15.08850372 11873,6917.849,95.437,540.572,538.855,0.0
54059.0,STARLINK-5173,PAYLOAD,2023-01-06 17:59:12,15.08817581,0.0001315999999999,53.2174,142.36,69.2359,290.8774,-0.00026016,-4.423e-05,0.0,0 STARLINK-5173,1 54059U 22136J   23006.74945208 -.00004423  00000-0 -26016-3 0  9990,2 54059  53.2174 142.3600 0001316  69.2359 290.8774 15.08817581 12518,6917.949000000001,95.439,540.724,538.904,0.0
54059.0,STARLINK-5173,PAYLOAD,2023-01-07 01:56:08,15.0883153,0.0001367,53.2187,140.8737,71.8505,288.2636,-5.7271e-05,-1.199e-05,0.0,0 STARLINK-5173,1 54059U 22136J   23007.08065458 -.00001199  00000-0 -57271-4 0  9993,2 54059  53.2187 140.8737 0001367  71.8505 288.2636 15.08831530 12567,6917.906,95.438,540.717,538.826,0.0
54059.0,STARLINK-5173,PAYLOAD,2023-01-07 08:17:40,15.08840238,0.0001296999999999,53.2181,139.6847,73.8907,286.2228,-6.6755e-05,-1.35e-05,0.0,0 STARLINK-5173,1 54059U 22136J   23007.34561014 -.00001350  00000-0 -66755-4 0  9997,2 54059  53.2181 139.6847 0001297  73.8907 286.2228 15.08840238 12604,6917.88,95.438,540.6419999999998,538.847,0.0
54059.0,STARLINK-5173,PAYLOAD,2023-01-08 14:29:59,15.08840969,0.0001267,53.2177,134.0354,75.8216,284.2917,0.00029546,4.418e-05,0.0,0 STARLINK-5173,1 54059U 22136J   23008.60416451  .00004418  00000-0  29546-3 0  9993,2 54059  53.2177 134.0354 0001267  75.8216 284.2917 15.08840969 12797,6917.877,95.437,540.619,538.866,0.0
54059.0,STARLINK-5173,PAYLOAD,2023-01-09 14:20:47,15.08844536,0.0001457,53.2177,129.5765,70.5987,289.5163,7.3061e-05,8.75e-06,0.0,0 STARLINK-5173,1 54059U 22136J   23009.59776821  .00000875  00000-0  73061-4 0  9997,2 54059  53.2177 129.5765 0001457  70.5987 289.5163 15.08844536 12469,6917.866999999998,95.437,540.739,538.724,0.0
54059.0,STARLINK-5173,PAYLOAD,2023-01-09 17:31:33,15.08845939,0.0001556,53.2172,128.9825,54.5793,305.5345,6.8187e-05,7.98e-06,0.0,0 STARLINK-5173,1 54059U 22136J   23009.73024681  .00000798  00000-0  68187-4 0  9990,2 54059  53.2172 128.9825 0001556  54.5793 305.5345 15.08845939 12965,6917.861999999999,95.437,540.804,538.651,0.0
54059.0,STARLINK-5173,PAYLOAD,2023-01-10 14:11:34,15.08846697,0.0001401,53.2177,125.1157,66.1867,293.9272,-7.810199999999999e-05,-1.531e-05,0.0,0 STARLINK-5173,1 54059U 22136J   23010.59136658 -.00001531  00000-0 -78102-4 0  9990,2 54059  53.2177 125.1157 0001401  66.1867 293.9272 15.08846697 12610,6917.86,95.437,540.694,538.756,0.0
54059.0,STARLINK-5173,PAYLOAD,2023-01-10 17:22:20,15.08845902,0.0001440999999999,53.2171,124.5211,65.1691,294.9451,-3.4705e-05,-8.400000000000001e-06,0.0,0 STARLINK-5173,1 54059U 22136J   23010.72384594 -.00000840  00000-0 -34705-4 0  9992,2 54059  53.2171 124.5211 0001441  65.1691 294.9451 15.08845902 12636,6917.861999999999,95.437,540.724,538.73,0.0
54059.0,STARLINK-5173,PAYLOAD,2023-01-11 12:26:57,15.0884527,0.000145,53.218,120.9527,64.4387,295.6755,4.2417e-05,3.87e-06,0.0,0 STARLINK-5173,1 54059U 22136J   23011.51872126  .00000387  00000-0  42417-4 0  9996,2 54059  53.2180 120.9527 0001450  64.4387 295.6755 15.08845270 13230,6917.864000000001,95.437,540.732,538.726,0.0
54059.0,STARLINK-5173,PAYLOAD,2023-01-11 15:37:43,15.08847002,0.0001455,53.218,120.3579,64.242,295.8722,5.4734e-05,5.83e-06,0.0,0 STARLINK-5173,1 54059U 22136J   23011.65119932  .00000583  00000-0  54734-4 0  9993,2 54059  53.2180 120.3579 0001455  64.2420 295.8722 15.08847002 12771,6917.859,95.437,540.731,538.717,0.0
54059.0,STARLINK-5173,PAYLOAD,2023-01-12 13:53:05,15.08866239,0.0001869,53.2183,116.1947,70.993,289.1265,0.00025084,3.709e-05,0.0,0 STARLINK-5173,1 54059U 22136J   23012.57853504  .00003709  00000-0  25084-3 0  9993,2 54059  53.2183 116.1947 0001869  70.9930 289.1265 15.08866239 13395,6917.8,95.436,540.9580000000002,538.372,0.0
54059.0,STARLINK-5173,PAYLOAD,2023-01-12 23:25:27,15.08826097,0.0002172,53.2185,114.4109,71.6767,288.4461,-0.00012161,-2.222e-05,0.0,0 STARLINK-5173,1 54059U 22136J   23012.97601184 -.00002222  00000-0 -12161-3 0  9995,2 54059  53.2185 114.4109 0002172  71.6767 288.4461 15.08826097 13457,6917.923000000002,95.438,541.29,538.285,0.0
